NORAD_CAT_ID,OBJECT_NAME,OBJECT_TYPE,EPOCH,MEAN_MOTION,ECCENTRICITY,INCLINATION,RA_OF_ASC_NODE,ARG_OF_PERICENTER,MEAN_ANOMALY,BSTAR,MEAN_MOTION_DOT,MEAN_MOTION_DDOT,TLE_LINE0,TLE_LINE1,TLE_LINE2,SEMIMAJOR_AXIS,PERIOD,APOGEE,PERIGEE,DECAYED
51719.0,STARLINK-3540,PAYLOAD,2022-12-07 12:25:33,15.08832089,0.000246,53.2174,263.0435,37.2788,322.8375,4.233100000000001e-05,3.85e-06,0.0,0 STARLINK-3540,1 51719U 22016F   22341.51775426  .00000385  00000-0  42331-4 0  9996,2 51719  53.2174 263.0435 0002460  37.2788 322.8375 15.08832089 45112,6917.905,95.438,541.471,538.068,0.0
51719.0,STARLINK-3540,PAYLOAD,2022-12-07 18:47:06,15.08837198,0.0002444,53.218,261.8544,34.2462,325.8687,7.744699999999999e-05,9.44e-06,0.0,0 STARLINK-3540,1 51719U 22016F   22341.78271133  .00000944  00000-0  77447-4 0  9998,2 51719  53.2180 261.8544 0002444  34.2462 325.8687 15.08837198 44095,6917.889,95.438,541.445,538.063,0.0
51719.0,STARLINK-3540,PAYLOAD,2022-12-07 23:33:15,15.08844184,0.0002751,53.2172,260.9654,35.6991,324.4185,0.00012539,1.708e-05,0.0,0 STARLINK-3540,1 51719U 22016F   22341.98142688  .00001708  00000-0  12539-3 0  9991,2 51719  53.2172 260.9654 0002751  35.6991 324.4185 15.08844184 45183,6917.868,95.437,541.636,537.8290000000002,0.0
51719.0,STARLINK-3540,PAYLOAD,2022-12-08 12:16:18,15.08860718,0.0002517,53.2179,258.5829,34.5521,325.5635,0.00025496,3.774e-05,0.0,0 STARLINK-3540,1 51719U 22016F   22342.51132778  .00003774  00000-0  25496-3 0  9991,2 51719  53.2179 258.5829 0002517  34.5521 325.5635 15.08860718 44209,6917.816999999999,95.436,541.423,537.941,0.0
51719.0,STARLINK-3540,PAYLOAD,2022-12-09 00:59:24,15.08842326,0.0002456,53.2174,256.2078,23.4569,336.6535,9.696e-05,1.255e-05,0.0,0 STARLINK-3540,1 51719U 22016F   22343.04125970  .00001255  00000-0  96960-4 0  9993,2 51719  53.2174 256.2078 0002456  23.4569 336.6535 15.08842326 45349,6917.873000000001,95.437,541.437,538.039,0.0
51719.0,STARLINK-3540,PAYLOAD,2022-12-09 04:10:10,15.08853858,0.0002566,53.2169,255.612,36.7575,323.3593,0.00020623,2.997e-05,0.0,0 STARLINK-3540,1 51719U 22016F   22343.17372893  .00002997  00000-0  20623-3 0  9991,2 51719  53.2169 255.6120 0002566  36.7575 323.3593 15.08853858 45361,6917.8380000000025,95.437,541.4780000000002,537.928,0.0
51719.0,STARLINK-3540,PAYLOAD,2022-12-09 21:39:27,15.08808498,0.0002102,53.2177,252.3422,13.8237,346.2813,3.8469e-05,3.24e-06,0.0,0 STARLINK-3540,1 51719U 22016F   22343.90240632  .00000324  00000-0  38469-4 0  9997,2 51719  53.2177 252.3422 0002102  13.8237 346.2813 15.08808498 45477,6917.977,95.44,541.2959999999998,538.388,0.0
51719.0,STARLINK-3540,PAYLOAD,2022-12-10 04:00:59,15.08831538,0.0002502,53.2176,251.149,34.7816,325.3339,-0.00014357,-2.572e-05,0.0,0 STARLINK-3540,1 51719U 22016F   22344.16736077 -.00002572  00000-0 -14357-3 0  9997,2 51719  53.2176 251.1490 0002502  34.7816 325.3339 15.08831538 45514,6917.906,95.438,541.502,538.04,0.0
51719.0,STARLINK-3540,PAYLOAD,2022-12-11 00:40:59,15.08849753,0.0002378,53.2175,247.2829,36.8349,323.2807,8.2035e-05,1.018e-05,0.0,0 STARLINK-3540,1 51719U 22016F   22345.02846287  .00001018  00000-0  82035-4 0  9999,2 51719  53.2175 247.2829 0002378  36.8349 323.2807 15.08849753 45649,6917.851,95.437,541.361,538.071,0.0
51719.0,STARLINK-3540,PAYLOAD,2022-12-11 18:10:15,15.0881815,0.0002236,53.2171,244.012,34.6747,325.439,0.00029713,4.441e-05,0.0,0 STARLINK-3540,1 51719U 22016F   22345.75712128  .00004441  00000-0  29713-3 0  9991,2 51719  53.2171 244.0120 0002236  34.6747 325.4390 15.08818150 45755,6917.946999999999,95.439,541.359,538.265,0.0
51719.0,STARLINK-3540,PAYLOAD,2022-12-11 21:21:01,15.08818135,0.0002291,53.217,243.4169,34.8151,325.2990000000001,0.00028086,4.182e-05,0.0,0 STARLINK-3540,1 51719U 22016F   22345.88960361  .00004182  00000-0  28086-3 0  9993,2 51719  53.2170 243.4169 0002291  34.8151 325.2990 15.08818135 44714,6917.946999999999,95.439,541.3969999999998,538.227,0.0
51719.0,STARLINK-3540,PAYLOAD,2022-12-12 03:42:34,15.08824409,0.0002344,53.2169,242.2275,30.9321,329.1809,0.00028576,4.261e-05,0.0,0 STARLINK-3540,1 51719U 22016F   22346.15456273  .00004261  00000-0  28576-3 0  9998,2 51719  53.2169 242.2275 0002344  30.9321 329.1809 15.08824409 44759,6917.928000000001,95.439,541.415,538.1709999999998,0.0
51719.0,STARLINK-3540,PAYLOAD,2022-12-12 16:25:39,15.08837976,0.0002292,53.2176,239.8483,35.9523,324.1623,9.1422e-05,1.167e-05,0.0,0 STARLINK-3540,1 51719U 22016F   22346.68448125  .00001167  00000-0  91422-4 0  9996,2 51719  53.2176 239.8483 0002292  35.9523 324.1623 15.08837976 45899,6917.887,95.438,541.337,538.1659999999998,0.0
51719.0,STARLINK-3540,PAYLOAD,2022-12-13 09:54:53,15.08839755,0.0002438,53.2177,236.5783,34.8578,325.2573,-1.967900000000001e-05,-6.02e-06,0.0,0 STARLINK-3540,1 51719U 22016F   22347.41312388 -.00000602  00000-0 -19679-4 0  9998,2 51719  53.2177 236.5783 0002438  34.8578 325.2573 15.08839755 44945,6917.880999999999,95.438,541.433,538.06,0.0
51719.0,STARLINK-3540,PAYLOAD,2022-12-14 01:48:45,15.08828392,0.0002389,53.217,233.6052,32.5479,327.5661,0.00013045,1.788e-05,0.0,0 STARLINK-3540,1 51719U 22016F   22348.07552969  .00001788  00000-0  13045-3 0  9996,2 51719  53.2170 233.6052 0002389  32.5479 327.5661 15.08828392 46103,6917.916,95.438,541.434,538.128,0.0
51719.0,STARLINK-3540,PAYLOAD,2022-12-14 09:45:40,15.08840326,0.0002361,53.2169,232.1186,32.7752,327.3387,4.5937e-05,4.43e-06,0.0,0 STARLINK-3540,1 51719U 22016F   22348.40672423  .00000443  00000-0  45937-4 0  9994,2 51719  53.2169 232.1186 0002361  32.7752 327.3387 15.08840326 46158,6917.879,95.438,541.378,538.111,0.0
51719.0,STARLINK-3540,PAYLOAD,2022-12-15 09:36:27,15.08841882,0.0002407,53.2169,227.6581,33.3019,326.8124,0.00011642,1.565e-05,0.0,0 STARLINK-3540,1 51719U 22016F   22349.40032145  .00001565  00000-0  11642-3 0  9997,2 51719  53.2169 227.6581 0002407  33.3019 326.8124 15.08841882 45240,6917.875,95.437,541.405,538.075,0.0
51719.0,STARLINK-3540,PAYLOAD,2022-12-15 15:58:00,15.08842025,0.0002414,53.2169,226.4685,34.6072,325.5077,0.00010851,1.439e-05,0.0,0 STARLINK-3540,1 51719U 22016F   22349.66528188  .00001439  00000-0  10851-3 0  9993,2 51719  53.2169 226.4685 0002414  34.6072 325.5077 15.08842025 45280,6917.874,95.437,541.409,538.069,0.0
51719.0,STARLINK-3540,PAYLOAD,2022-12-15 23:54:56,15.08839798,0.0002384,53.2172,224.981,35.3691,324.7459,5.9999e-05,6.67e-06,0.0,0 STARLINK-3540,1 51719U 22016F   22349.99648520  .00000667  00000-0  59999-4 0  9991,2 51719  53.2172 224.9810 0002384  35.3691 324.7459 15.08839798 46399,6917.880999999999,95.438,541.395,538.097,0.0
51719.0,STARLINK-3540,PAYLOAD,2022-12-16 09:27:14,15.08845898,0.0002396,53.2173,223.1966,36.8192,323.2965,0.00010725,1.419e-05,0.0,0 STARLINK-3540,1 51719U 22016F   22350.39392025  .00001419  00000-0  10725-3 0  9992,2 51719  53.2173 223.1966 0002396  36.8192 323.2965 15.08845898 45391,6917.861999999999,95.437,541.385,538.07,0.0
51719.0,STARLINK-3540,PAYLOAD,2022-12-16 20:34:56,15.08843603,0.0002345,53.2171,221.1152,36.2526,323.8625,3.5529e-05,2.77e-06,0.0,0 STARLINK-3540,1 51719U 22016F   22350.85760177  .00000277  00000-0  35529-4 0  9991,2 51719  53.2171 221.1152 0002345  36.2526 323.8625 15.08843603 45462,6917.869000000002,95.437,541.357,538.112,0.0
51719.0,STARLINK-3540,PAYLOAD,2022-12-17 01:21:06,15.08837529,0.000244,53.217,220.2235,35.96,324.1556,8.245799999999999e-05,1.024e-05,0.0,0 STARLINK-3540,1 51719U 22016F   22351.05632408  .00001024  00000-0  82458-4 0  9993,2 51719  53.2170 220.2235 0002440  35.9600 324.1556 15.08837529 46556,6917.888000000001,95.438,541.441,538.065,0.0
51719.0,STARLINK-3540,PAYLOAD,2022-12-17 18:50:21,15.08832395,0.000238,53.2165,216.9525,35.88800000000001,324.2272,1.5194e-05,-4.7e-07,0.0,0 STARLINK-3540,1 51719U 22016F   22351.78497066 -.00000047  00000-0  15194-4 0  9990,2 51719  53.2165 216.9525 0002380  35.8880 324.2272 15.08832395 45603,6917.904,95.438,541.415,538.122,0.0
51719.0,STARLINK-3540,PAYLOAD,2022-12-18 07:33:26,15.08836117,0.0002499,53.2162,214.5741,34.4727,325.6426,5.7908e-05,6.33e-06,0.0,0 STARLINK-3540,1 51719U 22016F   22352.31488826  .00000633  00000-0  57908-4 0  9993,2 51719  53.2162 214.5741 0002499  34.4727 325.6426 15.08836117 46748,6917.892,95.438,541.486,538.028,0.0
51719.0,STARLINK-3540,PAYLOAD,2022-12-18 21:51:54,15.08834126,0.0002489,53.2162,211.8968,35.37,324.7457,2.3595e-05,8.7e-07,0.0,0 STARLINK-3540,1 51719U 22016F   22352.91105228  .00000087  00000-0  23595-4 0  9999,2 51719  53.2162 211.8968 0002489  35.3700 324.7457 15.08834126 45773,6917.898,95.438,541.485,538.0409999999998,0.0
51719.0,STARLINK-3540,PAYLOAD,2022-12-19 01:02:41,15.08832586,0.000251,53.216,211.3024,33.7541,326.3611,8.9622e-06,-1.46e-06,0.0,0 STARLINK-3540,1 51719U 22016F   22353.04353438 -.00000146  00000-0  89622-5 0  9993,2 51719  53.2160 211.3024 0002510  33.7541 326.3611 15.08832586 46857,6917.903,95.438,541.504,538.0319999999998,0.0
51719.0,STARLINK-3540,PAYLOAD,2022-12-19 18:31:55,15.08843371,0.0002516,53.2161,208.0317,33.4975,326.6175,8.976100000000001e-05,1.141e-05,0.0,0 STARLINK-3540,1 51719U 22016F   22353.77216724  .00001141  00000-0  89761-4 0  9997,2 51719  53.2161 208.0317 0002516  33.4975 326.6175 15.08843371 45907,6917.87,95.437,541.476,537.995,0.0
51719.0,STARLINK-3540,PAYLOAD,2022-12-19 21:42:41,15.08845784,0.0002511,53.2159,207.437,33.532,326.583,0.00010789,1.429e-05,0.0,0 STARLINK-3540,1 51719U 22016F   22353.90464502  .00001429  00000-0  10789-3 0  9993,2 51719  53.2159 207.4370 0002511  33.5320 326.5830 15.08845784 46982,6917.863,95.437,541.465,537.991,0.0
51719.0,STARLINK-3540,PAYLOAD,2022-12-20 07:15:00,15.08843186,0.0002516,53.2158,205.6527,33.588,326.5271,9.266e-05,1.187e-05,0.0,0 STARLINK-3540,1 51719U 22016F   22354.30208732  .00001187  00000-0  92660-4 0  9999,2 51719  53.2158 205.6527 0002516  33.5880 326.5271 15.08843186 45983,6917.871,95.437,541.476,537.995,0.0
